[{"OBJECT_NAME":"CLARITY-1","OBJECT_ID":"2025-052T","EPOCH":"2026-03-09T21:50:38.075424","MEAN_MOTION":15.81863851,"ECCENTRICITY":0.00041333,"INCLINATION":97.4224,"RA_OF_ASC_NODE":341.0548,"ARG_OF_PERICENTER":106.2264,"MEAN_ANOMALY":253.946,"EPHEMERIS_TYPE":0,"CLASSIFICATION_TYPE":"U","NORAD_CAT_ID":63227,"ELEMENT_SET_NO":999,"REV_AT_EPOCH":5587,"BSTAR":0.0005281172,"MEAN_MOTION_DOT":0.00107362,"MEAN_MOTION_DDOT":0},{"OBJECT_NAME":"STARLINK-36920","OBJECT_ID":"2026-037R","EPOCH":"2026-03-09T22:00:01.999584","MEAN_MOTION":15.82009377,"ECCENTRICITY":0.00015984,"INCLINATION":42.9988,"RA_OF_ASC_NODE":197.0254,"ARG_OF_PERICENTER":287.0947,"MEAN_ANOMALY":262.9767,"EPHEMERIS_TYPE":0,"CLASSIFICATION_TYPE":"U","NORAD_CAT_ID":67947,"ELEMENT_SET_NO":999,"REV_AT_EPOCH":323,"BSTAR":0.00010369576,"MEAN_MOTION_DOT":0.00021348,"MEAN_MOTION_DDOT":0}]
